[{"OBJECT_NAME":"GAOFEN-9 05","OBJECT_ID":"2020-058A","EPOCH":"2026-03-10T00:01:50.876256","MEAN_MOTION":15.30293976,"ECCENTRICITY":0.0010522,"INCLINATION":97.2228,"RA_OF_ASC_NODE":111.963,"ARG_OF_PERICENTER":91.0204,"MEAN_ANOMALY":269.2242,"EPHEMERIS_TYPE":0,"CLASSIFICATION_TYPE":"U","NORAD_CAT_ID":46232,"ELEMENT_SET_NO":999,"REV_AT_EPOCH":30843,"BSTAR":0.00025120304,"MEAN_MOTION_DOT":7.299e-5,"MEAN_MOTION_DDOT":0},{"OBJECT_NAME":"STARLINK-31342","OBJECT_ID":"2024-044Q","EPOCH":"2026-03-09T19:15:48.623904","MEAN_MOTION":15.27566272,"ECCENTRICITY":7.647e-5,"INCLINATION":43.0028,"RA_OF_ASC_NODE":106.3237,"ARG_OF_PERICENTER":250.4263,"MEAN_ANOMALY":109.6507,"EPHEMERIS_TYPE":0,"CLASSIFICATION_TYPE":"U","NORAD_CAT_ID":59166,"ELEMENT_SET_NO":999,"REV_AT_EPOCH":11361,"BSTAR":-3.4448419e-5,"MEAN_MOTION_DOT":-1.209e-5,"MEAN_MOTION_DDOT":0}]
